[{"OBJECT_NAME":"STARLINK-1453","OBJECT_ID":"2020-035P","EPOCH":"2026-03-10T00:00:02.999808","MEAN_MOTION":15.52623231,"ECCENTRICITY":0.00068668,"INCLINATION":53.0485,"RA_OF_ASC_NODE":11.8339,"ARG_OF_PERICENTER":53.8237,"MEAN_ANOMALY":148.2661,"EPHEMERIS_TYPE":0,"CLASSIFICATION_TYPE":"U","NORAD_CAT_ID":45670,"ELEMENT_SET_NO":999,"REV_AT_EPOCH":591,"BSTAR":0.0014629927,"MEAN_MOTION_DOT":0.00092259,"MEAN_MOTION_DDOT":0},{"OBJECT_NAME":"STARLINK-1728","OBJECT_ID":"2020-070BC","EPOCH":"2026-03-10T00:00:02.999808","MEAN_MOTION":15.52881613,"ECCENTRICITY":0.00023874,"INCLINATION":53.0405,"RA_OF_ASC_NODE":123.9048,"ARG_OF_PERICENTER":186.8833,"MEAN_ANOMALY":278.8832,"EPHEMERIS_TYPE":0,"CLASSIFICATION_TYPE":"U","NORAD_CAT_ID":46582,"ELEMENT_SET_NO":999,"REV_AT_EPOCH":586,"BSTAR":0.0027671167,"MEAN_MOTION_DOT":0.00178378,"MEAN_MOTION_DDOT":0}]
